{"type": "FeatureCollection", "features": [ {"type": "Feature", "properties": {"norad_id": 29750, "name": "FENGYUN 1C DEB", "group": "fengyun-1c-debris", "lat": 56.97115910501842, "lon": 13.56647047131332, "alt_km": 877.1845882765265, "timestamp": "2025-12-24T11:33:00.287750+00:00", "meta": {"OBJECT_NAME": "FENGYUN 1C DEB", "OBJECT_ID": "1999-025AQ", "EPOCH": "2025-12-24T01:11:25.617120", "MEAN_MOTION": 14.09653477, "ECCENTRICITY": 0.0035077, "INCLINATION": 98.7535, "RA_OF_ASC_NODE": 26.8559, "ARG_OF_PERICENTER": 268.5558, "MEAN_ANOMALY": 120.0271, "EPHEMERIS_TYPE": 0, "CLASSIFICATION_TYPE": "U", "NORAD_CAT_ID": 29750, "ELEMENT_SET_NO": 999, "REV_AT_EPOCH": 97233, "BSTAR": 0.00019026, "MEAN_MOTION_DOT": 2.92e-06, "MEAN_MOTION_DDOT": 0}, "tle": {"line1": "1 29750U 99025AQ  25358.04960205  .00000292  00000+0  19026-3 0  9990", "line2": "2 29750  98.7535  26.8559 0035077 268.5558 120.0271 14.09653477972331"}}, "geometry": {"type": "Point", "coordinates": [13.56647047131332, 56.97115910501842]}}, {"type": "Feature", "properties": {"norad_id": 29751, "name": "FENGYUN 1C DEB", "group": "fengyun-1c-debris", "lat": 62.68094418187307, "lon": 9.101735002469459, "alt_km": 758.0154945034474, "timestamp": "2025-12-24T11:33:00.287760+00:00", "meta": {"OBJECT_NAME": "FENGYUN 1C DEB", "OBJECT_ID": "1999-025AR", "EPOCH": "2025-12-24T01:23:14.059104", "MEAN_MOTION": 14.23637933, "ECCENTRICITY": 0.0090161, "INCLINATION": 98.5403, "RA_OF_ASC_NODE": 25.6023, "ARG_OF_PERICENTER": 106.599, "MEAN_ANOMALY": 309.0833, "EPHEMERIS_TYPE": 0, "CLASSIFICATION_TYPE": "U", "NORAD_CAT_ID": 29751, "ELEMENT_SET_NO": 999, "REV_AT_EPOCH": 98234, "BSTAR": 0.00015095, "MEAN_MOTION_DOT": 3.17e-06, "MEAN_MOTION_DDOT": 0}, "tle": {"line1": "1 29751U 99025AR  25358.05780161  .00000317  00000+0  15095-3 0  9993", "line2": "2 29751  98.5403  25.6023 0090161 106.5990 309.0833 14.23637933982343"}}, "geometry": {"type": "Point", "coordinates": [9.101735002469459, 62.68094418187307]}}, {"type": "Feature", "properties": {"norad_id": 29754, "name": "FENGYUN 1C DEB", "group": "fengyun-1c-debris", "lat": 10.538849240015983, "lon": 99.58347751995734, "alt_km": 854.9066629052222, "timestamp": "2025-12-24T11:33:00.287771+00:00", "meta": {"OBJECT_NAME": "FENGYUN 1C DEB", "OBJECT_ID": "1999-025AU", "EPOCH": "2025-12-23T13:34:24.659616", "MEAN_MOTION": 14.1918902, "ECCENTRICITY": 0.00365213, "INCLINATION": 98.8844, "RA_OF_ASC_NODE": 100.3332, "ARG_OF_PERICENTER": 208.6961, "MEAN_ANOMALY": 166.2554, "EPHEMERIS_TYPE": 0, "CLASSIFICATION_TYPE": "U", "NORAD_CAT_ID": 29754, "ELEMENT_SET_NO": 999, "REV_AT_EPOCH": 97508, "BSTAR": 0.00082676546, "MEAN_MOTION_DOT": 1.698e-05, "MEAN_MOTION_DDOT": 0}, "tle": {"line1": "1 29754U 99025AU  25357.56556319  .00001698  00000+0  82677-3 0  9990", "line2": "2 29754  98.8844 100.3332 0036521 208.6961 166.2554 14.19189020975084"}}, "geometry": {"type": "Point", "coordinates": [99.58347751995734, 10.538849240015983]}}, {"type": "Feature", "properties": {"norad_id": 29758, "name": "FENGYUN 1C DEB", "group": "fengyun-1c-debris", "lat": 4.86158084583362, "lon": -64.62702580984511, "alt_km": 758.856459519202, "timestamp": "2025-12-24T11:33:00.287781+00:00", "meta": {"OBJECT_NAME": "FENGYUN 1C DEB", "OBJECT_ID": "1999-025AY", "EPOCH": "2025-12-23T13:40:35.619744", "MEAN_MOTION": 14.41139687, "ECCENTRICITY": 0.00221802, "INCLINATION": 98.8554, "RA_OF_ASC_NODE": 113.6695, "ARG_OF_PERICENTER": 274.6407, "MEAN_ANOMALY": 214.836, "EPHEMERIS_TYPE": 0, "CLASSIFICATION_TYPE": "U", "NORAD_CAT_ID": 29758, "ELEMENT_SET_NO": 999, "REV_AT_EPOCH": 97827, "BSTAR": 0.0024919515, "MEAN_MOTION_DOT": 8.017e-05, "MEAN_MOTION_DDOT": 0}, "tle": {"line1": "1 29758U 99025AY  25357.56985671  .00008017  00000+0  24920-2 0  9999", "line2": "2 29758  98.8554 113.6695 0022180 274.6407 214.8360 14.41139687978277"}}, "geometry": {"type": "Point", "coordinates": [-64.62702580984511, 4.86158084583362]}}, {"type": "Feature", "properties": {"norad_id": 29760, "name": "FENGYUN 1C DEB", "group": "fengyun-1c-debris", "lat": -44.96309826554752, "lon": 9.173999078253718, "alt_km": 966.4833290997694, "timestamp": "2025-12-24T11:33:00.287791+00:00", "meta": {"OBJECT_NAME": "FENGYUN 1C DEB", "OBJECT_ID": "1999-025BA", "EPOCH": "2025-12-23T22:07:49.832256", "MEAN_MOTION": 14.08296051, "ECCENTRICITY": 0.0131342, "INCLINATION": 98.7628, "RA_OF_ASC_NODE": 359.7696, "ARG_OF_PERICENTER": 142.0971, "MEAN_ANOMALY": 218.9535, "EPHEMERIS_TYPE": 0, "CLASSIFICATION_TYPE": "U", "NORAD_CAT_ID": 29760, "ELEMENT_SET_NO": 999, "REV_AT_EPOCH": 97250, "BSTAR": 0.00014989, "MEAN_MOTION_DOT": 2.36e-06, "MEAN_MOTION_DDOT": 0}, "tle": {"line1": "1 29760U 99025BA  25357.92210454  .00000236  00000+0  14989-3 0  9992", "line2": "2 29760  98.7628 359.7696 0131342 142.0971 218.9535 14.08296051972501"}}, "geometry": {"type": "Point", "coordinates": [9.173999078253718, -44.96309826554752]}}, {"type": "Feature", "properties": {"norad_id": 29762, "name": "FENGYUN 1C DEB", "group": "fengyun-1c-debris", "lat": 17.344253987223045, "lon": 163.67643051611796, "alt_km": 926.2900847980927, "timestamp": "2025-12-24T11:33:00.287802+00:00", "meta": {"OBJECT_NAME": "FENGYUN 1C DEB", "OBJECT_ID": "1999-025BC", "EPOCH": "2025-12-23T21:32:34.463040", "MEAN_MOTION": 14.22604895, "ECCENTRICITY": 0.0203412, "INCLINATION": 98.5806, "RA_OF_ASC_NODE": 340.4049, "ARG_OF_PERICENTER": 303.125, "MEAN_ANOMALY": 113.4581, "EPHEMERIS_TYPE": 0, "CLASSIFICATION_TYPE": "U", "NORAD_CAT_ID": 29762, "ELEMENT_SET_NO": 999, "REV_AT_EPOCH": 98107, "BSTAR": 0.00032712, "MEAN_MOTION_DOT": 8.55e-06, "MEAN_MOTION_DDOT": 0}, "tle": {"line1": "1 29762U 99025BC  25357.89762110  .00000855  00000+0  32712-3 0  9992", "line2": "2 29762  98.5806 340.4049 0203412 303.1250 113.4581 14.22604895981073"}}, "geometry": {"type": "Point", "coordinates": [163.67643051611796, 17.344253987223045]}}, {"type": "Feature", "properties": {"norad_id": 29763, "name": "FENGYUN 1C DEB", "group": "fengyun-1c-debris", "lat": 51.5965829831087, "lon": 168.76383685931611, "alt_km": 774.5173889631023, "timestamp": "2025-12-24T11:33:00.287812+00:00", "meta": {"OBJECT_NAME": "FENGYUN 1C DEB", "OBJECT_ID": "1999-025BD", "EPOCH": "2025-12-24T04:11:12.102432", "MEAN_MOTION": 14.07883191, "ECCENTRICITY": 0.0127937, "INCLINATION": 98.7627, "RA_OF_ASC_NODE": 337.246, "ARG_OF_PERICENTER": 148.2939, "MEAN_ANOMALY": 225.5235, "EPHEMERIS_TYPE": 0, "CLASSIFICATION_TYPE": "U", "NORAD_CAT_ID": 29763, "ELEMENT_SET_NO": 999, "REV_AT_EPOCH": 97211, "BSTAR": 0.00024082, "MEAN_MOTION_DOT": 3.98e-06, "MEAN_MOTION_DDOT": 0}, "tle": {"line1": "1 29763U 99025BD  25358.17444563  .00000398  00000+0  24082-3 0  9997", "line2": "2 29763  98.7627 337.2460 0127937 148.2939 225.5235 14.07883191972114"}}, "geometry": {"type": "Point", "coordinates": [168.76383685931611, 51.5965829831087]}}, {"type": "Feature", "properties": {"norad_id": 29765, "name": "FENGYUN 1C DEB", "group": "fengyun-1c-debris", "lat": 49.25964139776902, "lon": -153.30644141877863, "alt_km": 866.3440032109293, "timestamp": "2025-12-24T11:33:00.287822+00:00", "meta": {"OBJECT_NAME": "FENGYUN 1C DEB", "OBJECT_ID": "1999-025BF", "EPOCH": "2025-12-24T00:47:34.586880", "MEAN_MOTION": 14.02152304, "ECCENTRICITY": 0.0060115, "INCLINATION": 98.829, "RA_OF_ASC_NODE": 15.8641, "ARG_OF_PERICENTER": 61.5612, "MEAN_ANOMALY": 326.4375, "EPHEMERIS_TYPE": 0, "CLASSIFICATION_TYPE": "U", "NORAD_CAT_ID": 29765, "ELEMENT_SET_NO": 999, "REV_AT_EPOCH": 96909, "BSTAR": -6.8771e-05, "MEAN_MOTION_DOT": -1.49e-06, "MEAN_MOTION_DDOT": 0}, "tle": {"line1": "1 29765U 99025BF  25358.03303920 -.00000149  00000+0 -68771-4 0  9995", "line2": "2 29765  98.8290  15.8641 0060115  61.5612 326.4375 14.02152304969091"}}, "geometry": {"type": "Point", "coordinates": [-153.30644141877863, 49.25964139776902]}}, {"type": "Feature", "properties": {"norad_id": 29766, "name": "FENGYUN 1C DEB", "group": "fengyun-1c-debris", "lat": 62.974039453884814, "lon": -69.96878454974421, "alt_km": 1001.7237868543789, "timestamp": "2025-12-24T11:33:00.287833+00:00", "meta": {"OBJECT_NAME": "FENGYUN 1C DEB", "OBJECT_ID": "1999-025BG", "EPOCH": "2025-12-24T02:41:51.332352", "MEAN_MOTION": 13.97088606, "ECCENTRICITY": 0.0145643, "INCLINATION": 98.6866, "RA_OF_ASC_NODE": 307.1223, "ARG_OF_PERICENTER": 256.5449, "MEAN_ANOMALY": 113.3505, "EPHEMERIS_TYPE": 0, "CLASSIFICATION_TYPE": "U", "NORAD_CAT_ID": 29766, "ELEMENT_SET_NO": 999, "REV_AT_EPOCH": 95963, "BSTAR": 0.00088934, "MEAN_MOTION_DOT": 1.317e-05, "MEAN_MOTION_DDOT": 0}, "tle": {"line1": "1 29766U 99025BG  25358.11239968  .00001317  00000+0  88934-3 0  9993", "line2": "2 29766  98.6866 307.1223 0145643 256.5449 113.3505 13.97088606959639"}}, "geometry": {"type": "Point", "coordinates": [-69.96878454974421, 62.974039453884814]}}, {"type": "Feature", "properties": {"norad_id": 29767, "name": "FENGYUN 1C DEB", "group": "fengyun-1c-debris", "lat": -40.0488493856314, "lon": 139.08358560484382, "alt_km": 1123.8071915631208, "timestamp": "2025-12-24T11:33:00.287843+00:00", "meta": {"OBJECT_NAME": "FENGYUN 1C DEB", "OBJECT_ID": "1999-025BH", "EPOCH": "2025-12-23T17:56:44.071584", "MEAN_MOTION": 14.03451827, "ECCENTRICITY": 0.03328064, "INCLINATION": 98.1993, "RA_OF_ASC_NODE": 325.3815, "ARG_OF_PERICENTER": 30.0106, "MEAN_ANOMALY": 87.3104, "EPHEMERIS_TYPE": 0, "CLASSIFICATION_TYPE": "U", "NORAD_CAT_ID": 29767, "ELEMENT_SET_NO": 999, "REV_AT_EPOCH": 95754, "BSTAR": 0.0024674671, "MEAN_MOTION_DOT": 6.283e-05, "MEAN_MOTION_DDOT": 0}, "tle": {"line1": "1 29767U 99025BH  25357.74773231  .00006283  00000+0  24675-2 0  9996", "line2": "2 29767  98.1993 325.3815 0332806  30.0106  87.3104 14.03451827957549"}}, "geometry": {"type": "Point", "coordinates": [139.08358560484382, -40.0488493856314]}}]}